{"type": "FeatureCollection", "features": [{"type": "Feature", "properties": {"norad_id": 22675, "name": "COSMOS 2251", "group": "cosmos-2251-debris", "lat": 59.644213104793344, "lon": 102.75573720650723, "alt_km": 772.5967054490002, "timestamp": "2025-12-14T20:40:32.165245+00:00", "meta": {"OBJECT_NAME": "COSMOS 2251", "OBJECT_ID": "1993-036A", "EPOCH": "2025-12-14T06:44:09.144960", "MEAN_MOTION": 14.33205392, "ECCENTRICITY": 0.00240263, "INCLINATION": 74.0398, "RA_OF_ASC_NODE": 313.0679, "ARG_OF_PERICENTER": 34.8821, "MEAN_ANOMALY": 325.3899, "EPHEMERIS_TYPE": 0, "CLASSIFICATION_TYPE": "U", "NORAD_CAT_ID": 22675, "ELEMENT_SET_NO": 999, "REV_AT_EPOCH": 69795, "BSTAR": 7.4658026e-05, "MEAN_MOTION_DOT": 1.8e-06, "MEAN_MOTION_DDOT": 0}, "tle": {"line1": "1 22675U 93036A   25348.28066140  .00000180  00000+0  74658-4 0  9994", "line2": "2 22675  74.0398 313.0679 0024026  34.8821 325.3899 14.33205392697951"}}, "geometry": {"type": "Point", "coordinates": [102.75573720650723, 59.644213104793344]}}, {"type": "Feature", "properties": {"norad_id": 33757, "name": "COSMOS 2251 DEB", "group": "cosmos-2251-debris", "lat": 28.72935407666656, "lon": 130.70961652600894, "alt_km": 792.3720234781822, "timestamp": "2025-12-14T20:40:32.165269+00:00", "meta": {"OBJECT_NAME": "COSMOS 2251 DEB", "OBJECT_ID": "1993-036E", "EPOCH": "2025-12-14T08:30:51.185376", "MEAN_MOTION": 14.32581502, "ECCENTRICITY": 0.00153136, "INCLINATION": 74.0369, "RA_OF_ASC_NODE": 320.6612, "ARG_OF_PERICENTER": 333.65, "MEAN_ANOMALY": 83.9703, "EPHEMERIS_TYPE": 0, "CLASSIFICATION_TYPE": "U", "NORAD_CAT_ID": 33757, "ELEMENT_SET_NO": 999, "REV_AT_EPOCH": 88019, "BSTAR": 6.4777268e-05, "MEAN_MOTION_DOT": 1.5e-06, "MEAN_MOTION_DDOT": 0}, "tle": {"line1": "1 33757U 93036E   25348.35475909  .00000150  00000+0  64777-4 0  9990", "line2": "2 33757  74.0369 320.6612 0015313 333.6500  83.9703 14.32581502880196"}}, "geometry": {"type": "Point", "coordinates": [130.70961652600894, 28.72935407666656]}}, {"type": "Feature", "properties": {"norad_id": 33758, "name": "COSMOS 2251 DEB", "group": "cosmos-2251-debris", "lat": -56.75112931120275, "lon": 56.937593019892745, "alt_km": 717.2868625080237, "timestamp": "2025-12-14T20:40:32.165283+00:00", "meta": {"OBJECT_NAME": "COSMOS 2251 DEB", "OBJECT_ID": "1993-036F", "EPOCH": "2025-12-14T02:06:58.900608", "MEAN_MOTION": 14.51606798, "ECCENTRICITY": 0.00173583, "INCLINATION": 74.028, "RA_OF_ASC_NODE": 212.49, "ARG_OF_PERICENTER": 279.2439, "MEAN_ANOMALY": 241.7954, "EPHEMERIS_TYPE": 0, "CLASSIFICATION_TYPE": "U", "NORAD_CAT_ID": 33758, "ELEMENT_SET_NO": 999, "REV_AT_EPOCH": 88324, "BSTAR": 0.00091084711, "MEAN_MOTION_DOT": 3.63e-05, "MEAN_MOTION_DDOT": 0}, "tle": {"line1": "1 33758U 93036F   25348.08818172  .00003630  00000+0  91085-3 0  9991", "line2": "2 33758  74.0280 212.4900 0017358 279.2439 241.7954 14.51606798883241"}}, "geometry": {"type": "Point", "coordinates": [56.937593019892745, -56.75112931120275]}}, {"type": "Feature", "properties": {"norad_id": 33760, "name": "COSMOS 2251 DEB", "group": "cosmos-2251-debris", "lat": 57.12119430109752, "lon": -56.145453129879826, "alt_km": 756.9880665568407, "timestamp": "2025-12-14T20:40:32.165295+00:00", "meta": {"OBJECT_NAME": "COSMOS 2251 DEB", "OBJECT_ID": "1993-036H", "EPOCH": "2025-12-14T06:02:27.062304", "MEAN_MOTION": 14.3567407, "ECCENTRICITY": 0.0019942, "INCLINATION": 74.0322, "RA_OF_ASC_NODE": 278.6812, "ARG_OF_PERICENTER": 16.6114, "MEAN_ANOMALY": 133.8089, "EPHEMERIS_TYPE": 0, "CLASSIFICATION_TYPE": "U", "NORAD_CAT_ID": 33760, "ELEMENT_SET_NO": 999, "REV_AT_EPOCH": 88146, "BSTAR": 0.00015194552, "MEAN_MOTION_DOT": 4.13e-06, "MEAN_MOTION_DDOT": 0}, "tle": {"line1": "1 33760U 93036H   25348.25170211  .00000413  00000+0  15195-3 0  9992", "line2": "2 33760  74.0322 278.6812 0019942  16.6114 133.8089 14.35674070881463"}}, "geometry": {"type": "Point", "coordinates": [-56.145453129879826, 57.12119430109752]}}, {"type": "Feature", "properties": {"norad_id": 33761, "name": "COSMOS 2251 DEB", "group": "cosmos-2251-debris", "lat": 40.21439534106464, "lon": -97.76783439693467, "alt_km": 742.0414987106969, "timestamp": "2025-12-14T20:40:32.165307+00:00", "meta": {"OBJECT_NAME": "COSMOS 2251 DEB", "OBJECT_ID": "1993-036J", "EPOCH": "2025-12-14T04:23:37.509792", "MEAN_MOTION": 14.42551417, "ECCENTRICITY": 0.00231119, "INCLINATION": 74.0368, "RA_OF_ASC_NODE": 249.485, "ARG_OF_PERICENTER": 329.5414, "MEAN_ANOMALY": 150.7847, "EPHEMERIS_TYPE": 0, "CLASSIFICATION_TYPE": "U", "NORAD_CAT_ID": 33761, "ELEMENT_SET_NO": 999, "REV_AT_EPOCH": 88255, "BSTAR": 0.00057122877, "MEAN_MOTION_DOT": 1.875e-05, "MEAN_MOTION_DDOT": 0}, "tle": {"line1": "1 33761U 93036J   25348.18307303  .00001875  00000+0  57123-3 0  9999", "line2": "2 33761  74.0368 249.4850 0023111 329.5414 150.7847 14.42551417882552"}}, "geometry": {"type": "Point", "coordinates": [-97.76783439693467, 40.21439534106464]}}, {"type": "Feature", "properties": {"norad_id": 33762, "name": "COSMOS 2251 DEB", "group": "cosmos-2251-debris", "lat": -16.140769652005943, "lon": -58.60244680331769, "alt_km": 774.0855081168211, "timestamp": "2025-12-14T20:40:32.165318+00:00", "meta": {"OBJECT_NAME": "COSMOS 2251 DEB", "OBJECT_ID": "1993-036K", "EPOCH": "2025-12-14T07:55:14.949696", "MEAN_MOTION": 14.33664394, "ECCENTRICITY": 0.00150662, "INCLINATION": 74.0418, "RA_OF_ASC_NODE": 307.1189, "ARG_OF_PERICENTER": 8.1757, "MEAN_ANOMALY": 113.3893, "EPHEMERIS_TYPE": 0, "CLASSIFICATION_TYPE": "U", "NORAD_CAT_ID": 33762, "ELEMENT_SET_NO": 999, "REV_AT_EPOCH": 88070, "BSTAR": 7.5244323e-05, "MEAN_MOTION_DOT": 1.83e-06, "MEAN_MOTION_DDOT": 0}, "tle": {"line1": "1 33762U 93036K   25348.33003414  .00000183  00000+0  75244-4 0  9999", "line2": "2 33762  74.0418 307.1189 0015066   8.1757 113.3893 14.33664394880706"}}, "geometry": {"type": "Point", "coordinates": [-58.60244680331769, -16.140769652005943]}}, {"type": "Feature", "properties": {"norad_id": 33764, "name": "COSMOS 2251 DEB", "group": "cosmos-2251-debris", "lat": 11.85303152809054, "lon": 85.29482738522185, "alt_km": 754.2215671270678, "timestamp": "2025-12-14T20:40:32.165329+00:00", "meta": {"OBJECT_NAME": "COSMOS 2251 DEB", "OBJECT_ID": "1993-036M", "EPOCH": "2025-12-14T05:35:12.724224", "MEAN_MOTION": 14.39514547, "ECCENTRICITY": 0.00238803, "INCLINATION": 74.0336, "RA_OF_ASC_NODE": 269.9001, "ARG_OF_PERICENTER": 235.3963, "MEAN_ANOMALY": 275.6521, "EPHEMERIS_TYPE": 0, "CLASSIFICATION_TYPE": "U", "NORAD_CAT_ID": 33764, "ELEMENT_SET_NO": 999, "REV_AT_EPOCH": 88178, "BSTAR": 0.00044602708, "MEAN_MOTION_DOT": 1.369e-05, "MEAN_MOTION_DDOT": 0}, "tle": {"line1": "1 33764U 93036M   25348.23278616  .00001369  00000+0  44603-3 0  9999", "line2": "2 33764  74.0336 269.9001 0023880 235.3963 275.6521 14.39514547881780"}}, "geometry": {"type": "Point", "coordinates": [85.29482738522185, 11.85303152809054]}}, {"type": "Feature", "properties": {"norad_id": 33765, "name": "COSMOS 2251 DEB", "group": "cosmos-2251-debris", "lat": 5.305798274203351, "lon": -12.806254896921969, "alt_km": 534.3186594876624, "timestamp": "2025-12-14T20:40:32.165339+00:00", "meta": {"OBJECT_NAME": "COSMOS 2251 DEB", "OBJECT_ID": "1993-036N", "EPOCH": "2025-12-13T23:46:17.226624", "MEAN_MOTION": 15.10096462, "ECCENTRICITY": 0.00652197, "INCLINATION": 74.0086, "RA_OF_ASC_NODE": 170.5204, "ARG_OF_PERICENTER": 262.4534, "MEAN_ANOMALY": 219.5014, "EPHEMERIS_TYPE": 0, "CLASSIFICATION_TYPE": "U", "NORAD_CAT_ID": 33765, "ELEMENT_SET_NO": 999, "REV_AT_EPOCH": 89637, "BSTAR": 0.001970132, "MEAN_MOTION_DOT": 0.00033877, "MEAN_MOTION_DDOT": 0}, "tle": {"line1": "1 33765U 93036N   25347.99047716  .00033877  00000+0  19701-2 0  9996", "line2": "2 33765  74.0086 170.5204 0065219 262.4534 219.5014 15.10096462896378"}}, "geometry": {"type": "Point", "coordinates": [-12.806254896921969, 5.305798274203351]}}, {"type": "Feature", "properties": {"norad_id": 33766, "name": "COSMOS 2251 DEB", "group": "cosmos-2251-debris", "lat": 5.695181516458438, "lon": -50.49331048288831, "alt_km": 820.2378165057735, "timestamp": "2025-12-14T20:40:32.165350+00:00", "meta": {"OBJECT_NAME": "COSMOS 2251 DEB", "OBJECT_ID": "1993-036P", "EPOCH": "2025-12-14T03:07:57.893088", "MEAN_MOTION": 14.34939761, "ECCENTRICITY": 0.00642362, "INCLINATION": 74.1856, "RA_OF_ASC_NODE": 132.4533, "ARG_OF_PERICENTER": 335.4416, "MEAN_ANOMALY": 24.368, "EPHEMERIS_TYPE": 0, "CLASSIFICATION_TYPE": "U", "NORAD_CAT_ID": 33766, "ELEMENT_SET_NO": 999, "REV_AT_EPOCH": 87765, "BSTAR": 0.00064914566, "MEAN_MOTION_DOT": 1.865e-05, "MEAN_MOTION_DDOT": 0}, "tle": {"line1": "1 33766U 93036P   25348.13053117  .00001865  00000+0  64915-3 0  9996", "line2": "2 33766  74.1856 132.4533 0064236 335.4416  24.3680 14.34939761877659"}}, "geometry": {"type": "Point", "coordinates": [-50.49331048288831, 5.695181516458438]}}, {"type": "Feature", "properties": {"norad_id": 33768, "name": "COSMOS 2251 DEB", "group": "cosmos-2251-debris", "lat": -52.3858764557113, "lon": 58.20370083964202, "alt_km": 1246.4162967048815, "timestamp": "2025-12-14T20:40:32.165361+00:00", "meta": {"OBJECT_NAME": "COSMOS 2251 DEB", "OBJECT_ID": "1993-036R", "EPOCH": "2025-12-14T02:34:17.695200", "MEAN_MOTION": 13.58456175, "ECCENTRICITY": 0.03663903, "INCLINATION": 74.0679, "RA_OF_ASC_NODE": 217.661, "ARG_OF_PERICENTER": 15.1024, "MEAN_ANOMALY": 135.5052, "EPHEMERIS_TYPE": 0, "CLASSIFICATION_TYPE": "U", "NORAD_CAT_ID": 33768, "ELEMENT_SET_NO": 999, "REV_AT_EPOCH": 83314, "BSTAR": 0.00042682385, "MEAN_MOTION_DOT": 4.61e-06, "MEAN_MOTION_DDOT": 0}, "tle": {"line1": "1 33768U 93036R   25348.10714925  .00000461  00000+0  42682-3 0  9994", "line2": "2 33768  74.0679 217.6610 0366390  15.1024 135.5052 13.58456175833140"}}, "geometry": {"type": "Point", "coordinates": [58.20370083964202, -52.3858764557113]}}]}